TITAN 4B R/B            
1 26474U 00047B   25317.90289580  .00009348  00000+0  59394-3 0  9999
2 26474  67.9918   5.8264 0041505 178.3110 181.8187 15.08492976375444
ENVISAT                 
1 27386U 02009A   25317.83372586  .00000406  00000+0  14552-3 0  9996
2 27386  98.3553 269.3141 0001298  82.4348 303.4103 14.38983934242516
IDEFIX & ARIANE 42P R/B 
1 27422U 02021B   25317.77439122  .00000835  00000+0  33416-3 0  9990
2 27422  98.5740 252.8480 0011931 163.4755 196.6819 14.30920007227442
AQUA                    
1 27424U 02022A   25317.93762059  .00003370  00000+0  68612-3 0  9992
2 27424  98.3990 278.3574 0000784  56.5108 352.4348 14.61712247251821
CZ-4B R/B               
1 27432U 02024C   25317.42232382  .00000164  00000+0  10780-3 0  9999
2 27432  98.9045   6.2899 0050004 354.3690  16.6021 14.14519127212802
MIDORI II (ADEOS-II)    
1 27597U 02056A   25317.87155398  .00000779  00000+0  32461-3 0  9998
2 27597  98.7590 270.6836 0001303  32.7567 327.3695 14.29177476193757
H-2A R/B                
1 27601U 02056E   25317.84893538  .00000743  00000+0  27510-3 0  9996
2 27601  98.3021 277.7633 0070903 145.9560 235.4767 14.33646069197514
CZ-4B R/B               
1 28059U 03049C   25317.43538646  .00001030  00000+0  24814-3 0  9992
2 28059  98.6770 302.8957 0047377 225.6169 134.1142 14.54870224169690
CZ-2C R/B               
1 28222U 04012C   25317.12228482  .00051769  00000+0  82391-3 0  9993
2 28222  97.7482   7.3518 0019188  22.4017 337.8068 15.52916406186124
SL-16 R/B               
1 28353U 04021B   25317.69972231  .00000357  00000+0  21059-3 0  9999
2 28353  70.9979 115.9043 0006594 229.9890 130.0654 14.14573215106436
CZ-4B R/B               
1 28415U 04035C   25317.53234910  .00019046  00000+0  71410-3 0  9992
2 28415  97.3653 348.2742 0034499  23.2844 336.9949 15.26720469162179
CZ-2C R/B               
1 28480U 04046B   25317.71854482  .00000458  00000+0  18459-3 0  9999
2 28480  98.1961 234.9046 0140315 137.4479 223.7679 14.26922207 91961
